NORAD_CAT_ID,OBJECT_NAME,OBJECT_TYPE,EPOCH,MEAN_MOTION,ECCENTRICITY,INCLINATION,RA_OF_ASC_NODE,ARG_OF_PERICENTER,MEAN_ANOMALY,BSTAR,MEAN_MOTION_DOT,MEAN_MOTION_DDOT,TLE_LINE0,TLE_LINE1,TLE_LINE2,SEMIMAJOR_AXIS,PERIOD,APOGEE,PERIGEE,DECAYED
53820.0,STARLINK-4758,PAYLOAD,2023-11-02 02:54:56,15.0885767,0.0001528,53.2165,198.603,108.4906,251.6252,0.00065597,0.00010172,0.0,0 STARLINK-4758,1 53820U 22114C   23306.12148221  .00010172  00000-0  65597-3 0  9999,2 53820  53.2165 198.6030 0001528 108.4906 251.6252 15.08857670 63215,6917.826,95.436,540.748,538.634,0.0
53820.0,STARLINK-4758,PAYLOAD,2023-11-02 20:24:10,15.08845811,0.0001545,53.2169,195.3318,106.0127,254.1036,0.00067,0.00010393,0.0,0 STARLINK-4758,1 53820U 22114C   23306.85012524  .00010393  00000-0  67000-3 0  9991,2 53820  53.2169 195.3318 0001545 106.0127 254.1036 15.08845811 62783,6917.863,95.437,540.796,538.659,0.0
53820.0,STARLINK-4758,PAYLOAD,2023-11-02 21:59:33,15.08845325,0.0001579,53.217,195.0342,107.1195,252.997,0.00070358,0.00010929,0.0,0 STARLINK-4758,1 53820U 22114C   23306.91636531  .00010929  00000-0  70358-3 0  9993,2 53820  53.2170 195.0342 0001579 107.1195 252.9970 15.08845325 63338,6917.864,95.437,540.821,538.637,0.0
53820.0,STARLINK-4758,PAYLOAD,2023-11-03 09:07:16,15.08844193,0.0001286,53.2172,192.9544,80.8081,279.3057,0.00053942,8.308e-05,0.0,0 STARLINK-4758,1 53820U 22114C   23307.38004694  .00008308  00000-0  53942-3 0  9992,2 53820  53.2172 192.9544 0001286  80.8081 279.3057 15.08844193 62864,6917.868,95.437,540.622,538.843,0.0
53820.0,STARLINK-4758,PAYLOAD,2023-11-03 20:14:58,15.08834149,0.0001324,53.2173,190.8735,79.0965,281.0176,0.00041447,6.313e-05,0.0,0 STARLINK-4758,1 53820U 22114C   23307.84372946  .00006313  00000-0  41447-3 0  9992,2 53820  53.2173 190.8735 0001324  79.0965 281.0176 15.08834149 62938,6917.898,95.438,540.679,538.847,0.0
53820.0,STARLINK-4758,PAYLOAD,2023-11-03 21:50:21,15.08839503,0.000131,53.2171,190.5781,80.6899,279.4241,0.00020276,2.94e-05,0.0,0 STARLINK-4758,1 53820U 22114C   23307.90996877  .00002940  00000-0  20276-3 0  9993,2 53820  53.2171 190.5781 0001310  80.6899 279.4241 15.08839503 63487,6917.882,95.438,540.653,538.841,0.0
53820.0,STARLINK-4758,PAYLOAD,2023-11-04 02:36:30,15.08849506,0.000127,53.2164,189.6844,89.9847,270.1291,0.00037355,5.664e-05,0.0,0 STARLINK-4758,1 53820U 22114C   23308.10868377  .00005664  00000-0  37355-3 0  9991,2 53820  53.2164 189.6844 0001270  89.9847 270.1291 15.08849506 62978,6917.851,95.437,540.595,538.838,0.0
53820.0,STARLINK-4758,PAYLOAD,2023-11-04 08:58:03,15.08842305,0.0001099,53.215,188.4933,80.4525,279.6592,0.00038611,5.863e-05,0.0,0 STARLINK-4758,1 53820U 22114C   23308.37364683  .00005863  00000-0  38611-3 0  9998,2 53820  53.2150 188.4933 0001099  80.4525 279.6592 15.08842305 63011,6917.873,95.437,540.499,538.978,0.0
53820.0,STARLINK-4758,PAYLOAD,2023-11-04 20:05:45,15.08834413,0.000201,53.2172,186.4135,77.9699,282.1518,1.6911e-05,-1.9e-07,0.0,0 STARLINK-4758,1 53820U 22114C   23308.83733417 -.00000019  00000-0  16911-4 0  9993,2 53820  53.2172 186.4135 0002010  77.9699 282.1518 15.08834413 63089,6917.897,95.438,541.153,538.372,0.0
53820.0,STARLINK-4758,PAYLOAD,2023-11-04 23:16:31,15.08836479,0.0001521,53.218,185.8226,100.9387,259.1776,4.3731e-05,4.08e-06,0.0,0 STARLINK-4758,1 53820U 22114C   23308.96981263  .00000408  00000-0  43731-4 0  9992,2 53820  53.2180 185.8226 0001521 100.9387 259.1776 15.08836479 63645,6917.891,95.438,540.808,538.704,0.0
53820.0,STARLINK-4758,PAYLOAD,2023-11-05 08:48:50,15.08851119,0.0001496,53.2171,184.0364,88.0184,272.0979,0.00037491,5.686e-05,0.0,0 STARLINK-4758,1 53820U 22114C   23309.36724853  .00005686  00000-0  37491-3 0  9995,2 53820  53.2171 184.0364 0001496  88.0184 272.0979 15.08851119 63165,6917.846,95.437,540.746,538.676,0.0
53820.0,STARLINK-4758,PAYLOAD,2023-11-05 21:31:54,15.08884658,0.0001516,53.2158,181.6557,85.9916,274.1249,0.0016095,0.00025451,0.0,0 STARLINK-4758,1 53820U 22114C   23309.89716080  .00025451  00000-0  16095-2 0  9994,2 53820  53.2158 181.6557 0001516  85.9916 274.1249 15.08884658 63784,6917.744,95.435,540.658,538.56,0.0
53820.0,STARLINK-4758,PAYLOAD,2023-11-06 00:42:40,15.0891054,0.0001608,53.2163,181.0626,88.4548,271.6628,0.0029816,0.00047577,0.0,0 STARLINK-4758,1 53820U 22114C   23310.02963461  .00047577  00000-0  29816-2 0  9996,2 53820  53.2163 181.0626 0001608  88.4548 271.6628 15.08910540 63268,6917.665,95.433,540.642,538.417,0.0
53820.0,STARLINK-4758,PAYLOAD,2023-11-06 08:39:36,15.08872527,0.0001728,53.2142,179.5725,73.9314,286.1869,0.00057985,8.96e-05,0.0,0 STARLINK-4758,1 53820U 22114C   23310.36083360  .00008960  00000-0  57985-3 0  9996,2 53820  53.2142 179.5725 0001728  73.9314 286.1869 15.08872527 63316,6917.781,95.435,540.841,538.451,0.0
53820.0,STARLINK-4758,PAYLOAD,2023-11-06 19:47:18,15.08822554,0.0001254,53.2165,177.4922,96.0962,264.0173,-0.00086022,-0.00013945,0.0,0 STARLINK-4758,1 53820U 22114C   23310.82452147 -.00013945  00000-0 -86022-3 0  9995,2 53820  53.2165 177.4922 0001254  96.0962 264.0173 15.08822554 63381,6917.934,95.439,540.666,538.931,0.0
53820.0,STARLINK-4758,PAYLOAD,2023-11-06 21:22:42,15.0879272,0.0001278,53.2155,177.196,77.4497,282.6638,-0.0018579,-0.00029696,0.0,0 STARLINK-4758,1 53820U 22114C   23310.89076864 -.00029696  00000-0 -18579-2 0  9991,2 53820  53.2155 177.1960 0001278  77.4497 282.6638 15.08792720 63935,6918.025,95.441,540.774,539.006,0.0
53820.0,STARLINK-4758,PAYLOAD,2023-11-07 00:33:29,15.08782816,0.0001221,53.2164,176.6017,83.8144,276.2988,-0.0016774,-0.00026843,0.0,0 STARLINK-4758,1 53820U 22114C   23311.02325463 -.00026843  00000-0 -16774-2 0  9995,2 53820  53.2164 176.6017 0001221  83.8144 276.2988 15.08782816 63415,6918.055,95.441,540.765,539.075,0.0
53820.0,STARLINK-4758,PAYLOAD,2023-11-07 08:30:26,15.08774075,0.0001227,53.2174,175.1155,84.3015,275.8117,0.00088806,0.00013848,0.0,0 STARLINK-4758,1 53820U 22114C   23311.35447365  .00013848  00000-0  88806-3 0  9992,2 53820  53.2174 175.1155 0001227  84.3015 275.8117 15.08774075 64005,6918.082,95.442,540.796,539.098,0.0
53820.0,STARLINK-4758,PAYLOAD,2023-11-07 19:38:09,15.08809647,0.0001252,53.2168,173.0329,83.789,276.3245,0.0016211,0.00025584,0.0,0 STARLINK-4758,1 53820U 22114C   23311.81816489  .00025584  00000-0  16211-2 0  9990,2 53820  53.2168 173.0329 0001252  83.7890 276.3245 15.08809647 63539,6917.973,95.439,540.704,538.972,0.0
53820.0,STARLINK-4758,PAYLOAD,2023-11-07 21:13:32,15.08826846,0.0001344,53.2166,172.7361,87.7195,272.3951,0.0026393,0.00041952,0.0,0 STARLINK-4758,1 53820U 22114C   23311.88440505  .00041952  00000-0  26393-2 0  9998,2 53820  53.2166 172.7361 0001344  87.7195 272.3951 15.08826846 63544,6917.921,95.438,540.715,538.856,0.0
53820.0,STARLINK-4758,PAYLOAD,2023-11-08 19:28:55,15.08879328,0.0001425,53.217,168.5729,85.9142,274.2013,0.0013562,0.00021385,0.0,0 STARLINK-4758,1 53820U 22114C   23312.81175181  .00021385  00000-0  13562-2 0  9999,2 53820  53.2170 168.5729 0001425  85.9142 274.2013 15.08879328 63680,6917.76,95.435,540.611,538.639,0.0
53820.0,STARLINK-4758,PAYLOAD,2023-11-08 21:04:17,15.08941455,9.76e-05,53.2171,168.28,78.4371,281.673,0.004586,0.00073666,0.0,0 STARLINK-4758,1 53820U 22114C   23312.87797927  .00073666  00000-0  45860-2 0  9998,2 53820  53.2171 168.2800 0000976  78.4371 281.6730 15.08941455 64230,6917.57,95.431,540.11,538.76,0.0
53820.0,STARLINK-4758,PAYLOAD,2023-11-09 17:44:18,15.0887203,0.0001358,53.2173,164.4141,102.0775,258.0369,0.0011582,0.00018209,0.0,0 STARLINK-4758,1 53820U 22114C   23313.73909998  .00018209  00000-0  11582-2 0  9993,2 53820  53.2173 164.4141 0001358 102.0775 258.0369 15.08872030 63827,6917.782,95.436,540.587,538.708,0.0
53820.0,STARLINK-4758,PAYLOAD,2023-11-09 19:19:41,15.08838535,0.0001457,53.2172,164.1168,55.9407,304.1723,0.00056585,8.729e-05,0.0,0 STARLINK-4758,1 53820U 22114C   23313.80534073  .00008729  00000-0  56585-3 0  9998,2 53820  53.2172 164.1168 0001457  55.9407 304.1723 15.08838535 63830,6917.885,95.438,540.758,538.742,0.0
53820.0,STARLINK-4758,PAYLOAD,2023-11-09 20:55:04,15.08861646,0.0001613,53.2169,163.8163,127.2633,232.8507,0.00094729,0.00014829,0.0,0 STARLINK-4758,1 53820U 22114C   23313.87157748  .00014829  00000-0  94729-3 0  9995,2 53820  53.2169 163.8163 0001613 127.2633 232.8507 15.08861646 64382,6917.814,95.436,540.795,538.563,0.0
53820.0,STARLINK-4758,PAYLOAD,2023-11-10 00:05:50,15.08858258,0.0001398,53.2165,163.2204,96.0286,264.0866,0.0012373,0.00019468,0.0,0 STARLINK-4758,1 53820U 22114C   23314.00405725  .00019468  00000-0  12373-2 0  9990,2 53820  53.2165 163.2204 0001398  96.0286 264.0866 15.08858258 63867,6917.825,95.436,540.657,538.722,0.0
53820.0,STARLINK-4758,PAYLOAD,2023-11-10 20:45:51,15.08849573,0.0001383,53.2163,159.3506,87.1397,272.9753,0.00028936,4.321e-05,0.0,0 STARLINK-4758,1 53820U 22114C   23314.86517459  .00004321  00000-0  28936-3 0  9997,2 53820  53.2163 159.3506 0001383  87.1397 272.9753 15.08849573 63991,6917.851,95.437,540.673,538.759,0.0
53820.0,STARLINK-4758,PAYLOAD,2023-11-10 23:56:37,15.08848023,0.0001356,53.216,158.7577,86.4276,273.6871,-3.2724e-06,-3.4e-06,0.0,0 STARLINK-4758,1 53820U 22114C   23314.99765478 -.00000340  00000-0 -32724-5 0  9998,2 53820  53.2160 158.7577 0001356  86.4276 273.6871 15.08848023 64558,6917.856,95.437,540.659,538.783,0.0
53820.0,STARLINK-4758,PAYLOAD,2023-11-11 20:36:38,15.08843719,0.0001251,53.2154,154.8911,86.3354,273.7781,6.8125e-06,-1.79e-06,0.0,0 STARLINK-4758,1 53820U 22114C   23315.85877622 -.00000179  00000-0  68125-5 0  9992,2 53820  53.2154 154.8911 0001251  86.3354 273.7781 15.08843719 64143,6917.869,95.437,540.599,538.869,0.0
53820.0,STARLINK-4758,PAYLOAD,2023-11-11 23:47:24,15.0884088,0.0001287,53.2158,154.2973,86.8842,273.2297,-9.4947e-06,-4.39e-06,0.0,0 STARLINK-4758,1 53820U 22114C   23315.99125693 -.00000439  00000-0 -94947-5 0  9992,2 53820  53.2158 154.2973 0001287  86.8842 273.2297 15.08840880 64700,6917.878,95.437,540.633,538.852,0.0
